ONEWEB-0668             
1 56711U 23068B   25246.03611105  .00000057  00000+0  11507-3 0  9993
2 56711  87.9011 285.9938 0002043 108.8879 251.2474 13.16591335113997
ONEWEB-0676             
1 56712U 23068C   25246.24431294  .00000033  00000+0  53341-4 0  9993
2 56712  87.8998 285.9726 0002134  85.6874 274.4501 13.16593586113947
ONEWEB-0677             
1 56713U 23068D   25246.21999256 -.00000006  00000+0 -47355-4 0  9998
2 56713  87.9284 331.6347 0002139  96.6418 263.4959 13.20770054111929
ONEWEB-0678             
1 56714U 23068E   25245.73934825  .00000092  00000+0  21128-3 0  9998
2 56714  87.9062 316.5328 0001648  87.6879 272.4441 13.15548595111495
ONEWEB-0679             
1 56715U 23068F   25246.06146562  .00000061  00000+0  12520-3 0  9991
2 56715  87.9000 286.0014 0002452  97.9274 262.2135 13.16594515113941
ONEWEB-0680             
1 56716U 23068G   25246.13219802  .00000067  00000+0  13044-3 0  9996
2 56716  87.9223 301.2450 0002265 110.5524 249.5853 13.21824653113170
ONEWEB-0681             
1 56717U 23068H   25245.88305341  .00000059  00000+0  11127-3 0  9993
2 56717  87.9226 301.3114 0002866  81.7622 278.3837 13.21825913113135
ONEWEB-0682             
1 56718U 23068J   25246.14577263 -.00000043  00000+0 -14929-3 0  9996
2 56718  87.9047 316.4735 0002264 108.8739 251.2637 13.15547919111715
